start=new Date('2022-06-23T00:00:00.000Z').valueOf();
sats=[{"TLE_LINE2":"2 48442  53.0553 150.4879 0001831  69.2231 290.8954 15.06397465 62196","TLE_LINE1":"1 48442U 21040Q   22173.34424978  .00000397  00000-0  45586-4 0  9996","TIME_SYSTEM":"UTC","GP_ID":"206619252","EPHEMERIS_TYPE":"0","MEAN_MOTION_DDOT":"0.0000000000000","OBJECT_TYPE":"PAYLOAD","NORAD_CAT_ID":"48442","SITE":"AFETR","REV_AT_EPOCH":"6219","OBJECT_ID":"2021-040Q","DECAY_DATE":null,"SEMIMAJOR_AXIS":"6925.356","INCLINATION":"53.0553","PERIOD":"95.592","CLASSIFICATION_TYPE":"U","FILE":"3499789","ECCENTRICITY":"0.00018310","ARG_OF_PERICENTER":"69.2231","LAUNCH_DATE":"2021-05-09","MEAN_MOTION":"15.06397465","CENTER_NAME":"EARTH","OBJECT_NAME":"STARLINK-2644","RCS_SIZE":"LARGE","MEAN_ANOMALY":"290.8954","ELEMENT_SET_NO":"999","REF_FRAME":"TEME","RA_OF_ASC_NODE":"150.4879","BSTAR":"0.00004558600000","MEAN_MOTION_DOT":"0.00000397","APOAPSIS":"548.489","EPOCH":"2022-06-22T08:15:43.180992","COUNTRY_CODE":"US","PERIAPSIS":"545.953","MEAN_ELEMENT_THEORY":"SGP4"},{"NORAD_CAT_ID":"48443","OBJECT_TYPE":"PAYLOAD","MEAN_MOTION_DDOT":"0.0000000000000","GP_ID":"206649147","EPHEMERIS_TYPE":"0","TIME_SYSTEM":"UTC","TLE_LINE1":"1 48443U 21040R   22173.67229995 -.00000356  00000-0 -49995-5 0  9991","TLE_LINE2":"2 48443  53.0534 149.0250 0001591  79.9136 280.2032 15.06396535 62241","DECAY_DATE":null,"SEMIMAJOR_AXIS":"6925.359","OBJECT_ID":"2021-040R","REV_AT_EPOCH":"6224","SITE":"AFETR","OBJECT_NAME":"STARLINK-2663","RCS_SIZE":"LARGE","MEAN_MOTION":"15.06396535","CENTER_NAME":"EARTH","LAUNCH_DATE":"2021-05-09","ARG_OF_PERICENTER":"79.9136","ECCENTRICITY":"0.00015910","FILE":"3500001","CLASSIFICATION_TYPE":"U","INCLINATION":"53.0534","PERIOD":"95.592","MEAN_ELEMENT_THEORY":"SGP4","EPOCH":"2022-06-22T16:08:06.715680","COUNTRY_CODE":"US","PERIAPSIS":"546.122","APOAPSIS":"548.326","MEAN_MOTION_DOT":"-0.00000356","RA_OF_ASC_NODE":"149.0250","BSTAR":"-0.00000499950000","MEAN_ANOMALY":"280.2032","REF_FRAME":"TEME","ELEMENT_SET_NO":"999"},{"NORAD_CAT_ID":"48444","OBJECT_TYPE":"PAYLOAD","MEAN_MOTION_DDOT":"0.0000000000000","GP_ID":"206647396","EPHEMERIS_TYPE":"0","TIME_SYSTEM":"UTC","TLE_LINE1":"1 48444U 21040S   22173.66861219  .00000908  00000-0  79821-4 0  9993","TLE_LINE2":"2 48444  53.0540 149.0396 0001314  69.4966 290.6164 15.06398523 62248","SEMIMAJOR_AXIS":"6925.353","DECAY_DATE":null,"OBJECT_ID":"2021-040S","REV_AT_EPOCH":"6224","SITE":"AFETR","RCS_SIZE":"LARGE","OBJECT_NAME":"STARLINK-2645","CENTER_NAME":"EARTH","MEAN_MOTION":"15.06398523","LAUNCH_DATE":"2021-05-09","ARG_OF_PERICENTER":"69.4966","ECCENTRICITY":"0.00013140","CLASSIFICATION_TYPE":"U","FILE":"3500001","PERIOD":"95.592","INCLINATION":"53.0540","MEAN_ELEMENT_THEORY":"SGP4","PERIAPSIS":"546.308","COUNTRY_CODE":"US","EPOCH":"2022-06-22T16:02:48.093216","APOAPSIS":"548.128","MEAN_MOTION_DOT":"0.00000908","BSTAR":"0.00007982100000","RA_OF_ASC_NODE":"149.0396","REF_FRAME":"TEME","ELEMENT_SET_NO":"999","MEAN_ANOMALY":"290.6164"},{"TLE_LINE1":"1 48445U 21040T   22173.66492706 -.00000020  00000-0  17569-4 0  9992","TLE_LINE2":"2 48445  53.0548 149.0604 0002277  55.4515 304.6689 15.06399178 62248","GP_ID":"206647645","EPHEMERIS_TYPE":"0","TIME_SYSTEM":"UTC","MEAN_MOTION_DDOT":"0.0000000000000","NORAD_CAT_ID":"48445","OBJECT_TYPE":"PAYLOAD","SITE":"AFETR","REV_AT_EPOCH":"6224","DECAY_DATE":null,"SEMIMAJOR_AXIS":"6925.351","OBJECT_ID":"2021-040T","INCLINATION":"53.0548","PERIOD":"95.592","ECCENTRICITY":"0.00022770","CLASSIFICATION_TYPE":"U","FILE":"3500001","LAUNCH_DATE":"2021-05-09","ARG_OF_PERICENTER":"55.4515","OBJECT_NAME":"STARLINK-2634","RCS_SIZE":"LARGE","CENTER_NAME":"EARTH","MEAN_MOTION":"15.06399178","BSTAR":"0.00001756900000","RA_OF_ASC_NODE":"149.0604","MEAN_ANOMALY":"304.6689","ELEMENT_SET_NO":"999","REF_FRAME":"TEME","APOAPSIS":"548.793","MEAN_MOTION_DOT":"-0.00000020","MEAN_ELEMENT_THEORY":"SGP4","EPOCH":"2022-06-22T15:57:29.697984","COUNTRY_CODE":"US","PERIAPSIS":"545.639"},{"MEAN_MOTION_DDOT":"0.0000000000000","NORAD_CAT_ID":"48446","OBJECT_TYPE":"PAYLOAD","TLE_LINE1":"1 48446U 21040U   22173.66124778 -.00000172  00000-0  73520-5 0  9992","TLE_LINE2":"2 48446  53.0562 149.0800 0001969  60.4981 299.6204 15.06394456 62243","GP_ID":"206648897","EPHEMERIS_TYPE":"0","TIME_SYSTEM":"UTC","REV_AT_EPOCH":"6224","SEMIMAJOR_AXIS":"6925.366","DECAY_DATE":null,"OBJECT_ID":"2021-040U","SITE":"AFETR","LAUNCH_DATE":"2021-05-09","ARG_OF_PERICENTER":"60.4981","RCS_SIZE":"LARGE","OBJECT_NAME":"STARLINK-2247","CENTER_NAME":"EARTH","MEAN_MOTION":"15.06394456","INCLINATION":"53.0562","PERIOD":"95.592","ECCENTRICITY":"0.00019690","CLASSIFICATION_TYPE":"U","FILE":"3500001","APOAPSIS":"548.594","MEAN_MOTION_DOT":"-0.00000172","MEAN_ELEMENT_THEORY":"SGP4","EPOCH":"2022-06-22T15:52:11.808192","COUNTRY_CODE":"US","PERIAPSIS":"545.867","BSTAR":"0.00000735200000","RA_OF_ASC_NODE":"149.0800","MEAN_ANOMALY":"299.6204","ELEMENT_SET_NO":"999","REF_FRAME":"TEME"},{"NORAD_CAT_ID":"48447","OBJECT_TYPE":"PAYLOAD","MEAN_MOTION_DDOT":"0.0000000000000","GP_ID":"206648647","EPHEMERIS_TYPE":"0","TIME_SYSTEM":"UTC","TLE_LINE1":"1 48447U 21040V   22173.65755632  .00000260  00000-0  36358-4 0  9995","TLE_LINE2":"2 48447  53.0541 149.0909 0001850  56.1963 303.9202 15.06400791 62249","DECAY_DATE":null,"SEMIMAJOR_AXIS":"6925.346","OBJECT_ID":"2021-040V","REV_AT_EPOCH":"6224","SITE":"AFETR","RCS_SIZE":"LARGE","OBJECT_NAME":"STARLINK-2269","MEAN_MOTION":"15.06400791","CENTER_NAME":"EARTH","LAUNCH_DATE":"2021-05-09","ARG_OF_PERICENTER":"56.1963","ECCENTRICITY":"0.00018500","FILE":"3500001","CLASSIFICATION_TYPE":"U","INCLINATION":"53.0541","PERIOD":"95.592","MEAN_ELEMENT_THEORY":"SGP4","EPOCH":"2022-06-22T15:46:52.866048","COUNTRY_CODE":"US","PERIAPSIS":"545.930","APOAPSIS":"548.492","MEAN_MOTION_DOT":"0.00000260","BSTAR":"0.00003635800000","RA_OF_ASC_NODE":"149.0909","MEAN_ANOMALY":"303.9202","ELEMENT_SET_NO":"999","REF_FRAME":"TEME"},{"REV_AT_EPOCH":"6219","SEMIMAJOR_AXIS":"6925.368","DECAY_DATE":null,"OBJECT_ID":"2021-040W","SITE":"AFETR","MEAN_MOTION_DDOT":"0.0000000000000","NORAD_CAT_ID":"48448","OBJECT_TYPE":"PAYLOAD","TLE_LINE1":"1 48448U 21040W   22173.35067803 -.00000027  00000-0  17114-4 0  9990","TLE_LINE2":"2 48448  53.0551 150.4715 0002135  59.0085 301.1113 15.06393597 62196","GP_ID":"206618765","EPHEMERIS_TYPE":"0","TIME_SYSTEM":"UTC","APOAPSIS":"548.712","MEAN_MOTION_DOT":"-0.00000027","MEAN_ELEMENT_THEORY":"SGP4","COUNTRY_CODE":"US","PERIAPSIS":"545.755","EPOCH":"2022-06-22T08:24:58.581792","BSTAR":"0.00001711400000","RA_OF_ASC_NODE":"150.4715","ELEMENT_SET_NO":"999","REF_FRAME":"TEME","MEAN_ANOMALY":"301.1113","LAUNCH_DATE":"2021-05-09","ARG_OF_PERICENTER":"59.0085","RCS_SIZE":"LARGE","OBJECT_NAME":"STARLINK-2632","CENTER_NAME":"EARTH","MEAN_MOTION":"15.06393597","PERIOD":"95.593","INCLINATION":"53.0551","ECCENTRICITY":"0.00021350","FILE":"3499789","CLASSIFICATION_TYPE":"U"},{"EPOCH":"2022-06-22T15:41:34.729152","COUNTRY_CODE":"US","PERIAPSIS":"545.970","MEAN_ELEMENT_THEORY":"SGP4","MEAN_MOTION_DOT":"0.00000342","APOAPSIS":"548.517","MEAN_ANOMALY":"305.8829","REF_FRAME":"TEME","ELEMENT_SET_NO":"999","RA_OF_ASC_NODE":"149.1034","BSTAR":"0.00004185600000","MEAN_MOTION":"15.06390109","CENTER_NAME":"EARTH","RCS_SIZE":"LARGE","OBJECT_NAME":"STARLINK-2655","ARG_OF_PERICENTER":"54.2331","LAUNCH_DATE":"2021-05-09","FILE":"3500001","CLASSIFICATION_TYPE":"U","ECCENTRICITY":"0.00018390","INCLINATION":"53.0542","PERIOD":"95.593","OBJECT_ID":"2021-040X","DECAY_DATE":null,"SEMIMAJOR_AXIS":"6925.379","REV_AT_EPOCH":"6224","SITE":"AFETR","OBJECT_TYPE":"PAYLOAD","NORAD_CAT_ID":"48449","MEAN_MOTION_DDOT":"0.0000000000000","TIME_SYSTEM":"UTC","EPHEMERIS_TYPE":"0","GP_ID":"206648146","TLE_LINE2":"2 48449  53.0542 149.1034 0001839  54.2331 305.8829 15.06390109 62244","TLE_LINE1":"1 48449U 21040X   22173.65387418  .00000342  00000-0  41856-4 0  9990"},{"ARG_OF_PERICENTER":"54.5109","LAUNCH_DATE":"2021-05-09","MEAN_MOTION":"15.06398527","CENTER_NAME":"EARTH","OBJECT_NAME":"STARLINK-2660","RCS_SIZE":"LARGE","INCLINATION":"53.0537","PERIOD":"95.592","CLASSIFICATION_TYPE":"U","FILE":"3500001","ECCENTRICITY":"0.00024130","MEAN_MOTION_DOT":"-0.00000071","APOAPSIS":"548.889","EPOCH":"2022-06-22T15:36:15.748992","COUNTRY_CODE":"US","PERIAPSIS":"545.547","MEAN_ELEMENT_THEORY":"SGP4","MEAN_ANOMALY":"305.6105","ELEMENT_SET_NO":"999","REF_FRAME":"TEME","BSTAR":"0.00001416500000","RA_OF_ASC_NODE":"149.1196","MEAN_MOTION_DDOT":"0.0000000000000","OBJECT_TYPE":"PAYLOAD","NORAD_CAT_ID":"48450","TLE_LINE2":"2 48450  53.0537 149.1196 0002413  54.5109 305.6105 15.06398527 62241","TLE_LINE1":"1 48450U 21040Y   22173.65018228 -.00000071  00000-0  14165-4 0  9995","TIME_SYSTEM":"UTC","GP_ID":"206648397","EPHEMERIS_TYPE":"0","REV_AT_EPOCH":"6224","OBJECT_ID":"2021-040Y","SEMIMAJOR_AXIS":"6925.353","DECAY_DATE":null,"SITE":"AFETR"},{"REV_AT_EPOCH":"6224","OBJECT_ID":"2021-040Z","DECAY_DATE":null,"SEMIMAJOR_AXIS":"6925.416","SITE":"AFETR","MEAN_MOTION_DDOT":"0.0000000000000","OBJECT_TYPE":"PAYLOAD","NORAD_CAT_ID":"48451","TLE_LINE2":"2 48451  53.0545 149.1525 0001788  69.9891 290.1290 15.06378024 62242","TLE_LINE1":"1 48451U 21040Z   22173.64926678  .00000317  00000-0  40205-4 0  9998","TIME_SYSTEM":"UTC","EPHEMERIS_TYPE":"0","GP_ID":"206649148","MEAN_MOTION_DOT":"0.00000317","APOAPSIS":"548.519","EPOCH":"2022-06-22T15:34:56.649792","COUNTRY_CODE":"US","PERIAPSIS":"546.043","MEAN_ELEMENT_THEORY":"SGP4","MEAN_ANOMALY":"290.1290","ELEMENT_SET_NO":"999","REF_FRAME":"TEME","BSTAR":"0.00004020500000","RA_OF_ASC_NODE":"149.1525","ARG_OF_PERICENTER":"69.9891","LAUNCH_DATE":"2021-05-09","CENTER_NAME":"EARTH","MEAN_MOTION":"15.06378024","OBJECT_NAME":"STARLINK-2652","RCS_SIZE":"LARGE","INCLINATION":"53.0545","PERIOD":"95.594","CLASSIFICATION_TYPE":"U","FILE":"3500001","ECCENTRICITY":"0.00017880"}];
